{
  "type": "FeatureCollection",
  "features": [
    {
      "type": "Feature",
      "properties": {
        "norad_id": 29486,
        "name": "GPS BIIRM-2 (PRN 31)",
        "group": "gps-ops",
        "lat": 47.410041944941334,
        "lon": -150.72464266710247,
        "alt_km": 19898.91566931257,
        "timestamp": "2025-12-10T14:53:37.352044+00:00",
        "meta_object_name": "GPS BIIRM-2 (PRN 31)",
        "meta_object_id": "2006-042A",
        "meta_epoch": "2025-12-09T13:14:35.270304",
        "meta_mean_motion": 2.00554233,
        "meta_eccentricity": 0.0107363,
        "meta_inclination": 54.6937,
        "meta_ra_of_asc_node": 158.8672,
        "meta_arg_of_pericenter": 51.886,
        "meta_mean_anomaly": 320.6455,
        "meta_ephemeris_type": 0,
        "meta_classification_type": "U",
        "meta_norad_cat_id": 29486,
        "meta_element_set_no": 999,
        "meta_rev_at_epoch": 14059,
        "meta_bstar": 0,
        "meta_mean_motion_dot": 6.7e-07,
        "meta_mean_motion_ddot": 0,
        "tle_line1": "1 29486U 06042A   25343.55179711  .00000067  00000+0  00000+0 0  9995",
        "tle_line2": "2 29486  54.6937 158.8672 0107363  51.8860 320.6455  2.00554233140598"
      },
      "geometry": {
        "type": "Point",
        "coordinates": [
          -150.72464266710247,
          47.410041944941334
        ]
      }
    },
    {
      "type": "Feature",
      "properties": {
        "norad_id": 29601,
        "name": "GPS BIIRM-3 (PRN 12)",
        "group": "gps-ops",
        "lat": 43.82802791793071,
        "lon": -0.7956658785751898,
        "alt_km": 19984.341292457935,
        "timestamp": "2025-12-10T14:53:37.352055+00:00",
        "meta_object_name": "GPS BIIRM-3 (PRN 12)",
        "meta_object_id": "2006-052A",
        "meta_epoch": "2025-12-08T22:59:17.672352",
        "meta_mean_motion": 2.00573222,
        "meta_eccentricity": 0.0087721,
        "meta_inclination": 54.9712,
        "meta_ra_of_asc_node": 221.5484,
        "meta_arg_of_pericenter": 87.3994,
        "meta_mean_anomaly": 273.6864,
        "meta_ephemeris_type": 0,
        "meta_classification_type": "U",
        "meta_norad_cat_id": 29601,
        "meta_element_set_no": 999,
        "meta_rev_at_epoch": 13959,
        "meta_bstar": 0,
        "meta_mean_motion_dot": 1e-07,
        "meta_mean_motion_ddot": 0,
        "tle_line1": "1 29601U 06052A   25342.95784343  .00000010  00000+0  00000+0 0  9999",
        "tle_line2": "2 29601  54.9712 221.5484 0087721  87.3994 273.6864  2.00573222139595"
      },
      "geometry": {
        "type": "Point",
        "coordinates": [
          -0.7956658785751898,
          43.82802791793071
        ]
      }
    },
    {
      "type": "Feature",
      "properties": {
        "norad_id": 32260,
        "name": "GPS BIIRM-4 (PRN 15)",
        "group": "gps-ops",
        "lat": -53.190502620714916,
        "lon": -15.755415510573272,
        "alt_km": 20622.74368340709,
        "timestamp": "2025-12-10T14:53:37.352065+00:00",
        "meta_object_name": "GPS BIIRM-4 (PRN 15)",
        "meta_object_id": "2007-047A",
        "meta_epoch": "2025-12-10T06:15:19.311552",
        "meta_mean_motion": 2.00564571,
        "meta_eccentricity": 0.01642322,
        "meta_inclination": 53.9536,
        "meta_ra_of_asc_node": 87.861,
        "meta_arg_of_pericenter": 85.2178,
        "meta_mean_anomaly": 276.6503,
        "meta_ephemeris_type": 0,
        "meta_classification_type": "U",
        "meta_norad_cat_id": 32260,
        "meta_element_set_no": 999,
        "meta_rev_at_epoch": 13302,
        "meta_bstar": 0,
        "meta_mean_motion_dot": -1.7e-07,
        "meta_mean_motion_ddot": 0,
        "tle_line1": "1 32260U 07047A   25344.26064018 -.00000017  00000+0  00000+0 0  9993",
        "tle_line2": "2 32260  53.9536  87.8610 0164232  85.2178 276.6503  2.00564571133023"
      },
      "geometry": {
        "type": "Point",
        "coordinates": [
          -15.755415510573272,
          -53.190502620714916
        ]
      }
    },
    {
      "type": "Feature",
      "properties": {
        "norad_id": 32384,
        "name": "GPS BIIRM-5 (PRN 29)",
        "group": "gps-ops",
        "lat": 24.712800995073415,
        "lon": -59.627989738196746,
        "alt_km": 20235.079774300426,
        "timestamp": "2025-12-10T14:53:37.352076+00:00",
        "meta_object_name": "GPS BIIRM-5 (PRN 29)",
        "meta_object_id": "2007-062A",
        "meta_epoch": "2025-12-10T07:23:12.694848",
        "meta_mean_motion": 2.00577118,
        "meta_eccentricity": 0.00322292,
        "meta_inclination": 55.1843,
        "meta_ra_of_asc_node": 281.7435,
        "meta_arg_of_pericenter": 162.5278,
        "meta_mean_anomaly": 2.4985,
        "meta_ephemeris_type": 0,
        "meta_classification_type": "U",
        "meta_norad_cat_id": 32384,
        "meta_element_set_no": 999,
        "meta_rev_at_epoch": 13172,
        "meta_bstar": 0,
        "meta_mean_motion_dot": -6.2e-07,
        "meta_mean_motion_ddot": 0,
        "tle_line1": "1 32384U 07062A   25344.30778582 -.00000062  00000+0  00000+0 0  9990",
        "tle_line2": "2 32384  55.1843 281.7435 0032229 162.5278   2.4985  2.00577118131720"
      },
      "geometry": {
        "type": "Point",
        "coordinates": [
          -59.627989738196746,
          24.712800995073415
        ]
      }
    },
    {
      "type": "Feature",
      "properties": {
        "norad_id": 32711,
        "name": "GPS BIIRM-6 (PRN 07)",
        "group": "gps-ops",
        "lat": -33.32033293508298,
        "lon": 129.4341650088852,
        "alt_km": 20015.608192639746,
        "timestamp": "2025-12-10T14:53:37.352086+00:00",
        "meta_object_name": "GPS BIIRM-6 (PRN 07)",
        "meta_object_id": "2008-012A",
        "meta_epoch": "2025-12-09T16:22:36.528672",
        "meta_mean_motion": 2.00565456,
        "meta_eccentricity": 0.02023147,
        "meta_inclination": 54.4767,
        "meta_ra_of_asc_node": 157.4949,
        "meta_arg_of_pericenter": 244.9126,
        "meta_mean_anomaly": 112.9814,
        "meta_ephemeris_type": 0,
        "meta_classification_type": "U",
        "meta_norad_cat_id": 32711,
        "meta_element_set_no": 999,
        "meta_rev_at_epoch": 12995,
        "meta_bstar": 0,
        "meta_mean_motion_dot": 6.8e-07,
        "meta_mean_motion_ddot": 0,
        "tle_line1": "1 32711U 08012A   25343.68236723  .00000068  00000+0  00000+0 0  9991",
        "tle_line2": "2 32711  54.4767 157.4949 0202314 244.9126 112.9814  2.00565456129953"
      },
      "geometry": {
        "type": "Point",
        "coordinates": [
          129.4341650088852,
          -33.32033293508298
        ]
      }
    },
    {
      "type": "Feature",
      "properties": {
        "norad_id": 35752,
        "name": "GPS BIIRM-8 (PRN 05)",
        "group": "gps-ops",
        "lat": -20.757626844890122,
        "lon": 20.12243141275309,
        "alt_km": 20224.85650629129,
        "timestamp": "2025-12-10T14:53:37.352113+00:00",
        "meta_object_name": "GPS BIIRM-8 (PRN 05)",
        "meta_object_id": "2009-043A",
        "meta_epoch": "2025-12-10T05:14:27.337344",
        "meta_mean_motion": 2.00565787,
        "meta_eccentricity": 0.00518746,
        "meta_inclination": 56.0893,
        "meta_ra_of_asc_node": 34.8825,
        "meta_arg_of_pericenter": 81.9555,
        "meta_mean_anomaly": 322.9738,
        "meta_ephemeris_type": 0,
        "meta_classification_type": "U",
        "meta_norad_cat_id": 35752,
        "meta_element_set_no": 999,
        "meta_rev_at_epoch": 11957,
        "meta_bstar": 0,
        "meta_mean_motion_dot": -9.1e-07,
        "meta_mean_motion_ddot": 0,
        "tle_line1": "1 35752U 09043A   25344.21837196 -.00000091  00000+0  00000+0 0  9992",
        "tle_line2": "2 35752  56.0893  34.8825 0051874  81.9555 322.9738  2.00565787119570"
      },
      "geometry": {
        "type": "Point",
        "coordinates": [
          20.12243141275309,
          -20.757626844890122
        ]
      }
    },
    {
      "type": "Feature",
      "properties": {
        "norad_id": 36585,
        "name": "GPS BIIF-1  (PRN 25)",
        "group": "gps-ops",
        "lat": 54.056342695064664,
        "lon": -46.213621197998236,
        "alt_km": 19884.184775529044,
        "timestamp": "2025-12-10T14:53:37.352124+00:00",
        "meta_object_name": "GPS BIIF-1  (PRN 25)",
        "meta_object_id": "2010-022A",
        "meta_epoch": "2025-12-10T05:52:32.460960",
        "meta_mean_motion": 2.00553058,
        "meta_eccentricity": 0.01260066,
        "meta_inclination": 54.3005,
        "meta_ra_of_asc_node": 216.1746,
        "meta_arg_of_pericenter": 65.0446,
        "meta_mean_anomaly": 117.4636,
        "meta_ephemeris_type": 0,
        "meta_classification_type": "U",
        "meta_norad_cat_id": 36585,
        "meta_element_set_no": 999,
        "meta_rev_at_epoch": 11380,
        "meta_bstar": 0,
        "meta_mean_motion_dot": 1e-07,
        "meta_mean_motion_ddot": 0,
        "tle_line1": "1 36585U 10022A   25344.24482015  .00000010  00000+0  00000+0 0  9995",
        "tle_line2": "2 36585  54.3005 216.1746 0126006  65.0446 117.4636  2.00553058113802"
      },
      "geometry": {
        "type": "Point",
        "coordinates": [
          -46.213621197998236,
          54.056342695064664
        ]
      }
    }
  ]
}